NORAD_CAT_ID,OBJECT_NAME,OBJECT_TYPE,EPOCH,MEAN_MOTION,ECCENTRICITY,INCLINATION,RA_OF_ASC_NODE,ARG_OF_PERICENTER,MEAN_ANOMALY,BSTAR,MEAN_MOTION_DOT,MEAN_MOTION_DDOT,TLE_LINE0,TLE_LINE1,TLE_LINE2,SEMIMAJOR_AXIS,PERIOD,APOGEE,PERIGEE,DECAYED
51146.0,STARLINK-3354,PAYLOAD,2023-12-31 22:11:41,15.08838798,0.0001884,53.2165,284.9267,114.5662,245.5527,5.7519e-05,6.27e-06,0.0,0 STARLINK-3354,1 51146U 22005AU  23365.92478387  .00000627  00000-0  57519-4 0  9999,2 51146  53.2165 284.9267 0001884 114.5662 245.5527 15.08838798108146,6917.884,95.438,541.052,538.446,0.0
51146.0,STARLINK-3354,PAYLOAD,2024-01-01 01:22:27,15.08837705,0.0001558,53.2165,284.3321,93.8844,266.2327,5.6839e-05,6.17e-06,0.0,0 STARLINK-3354,1 51146U 22005AU  24001.05726679  .00000617  00000-0  56839-4 0  9994,2 51146  53.2165 284.3321 0001558  93.8844 266.2327 15.08837705109281,6917.887,95.438,540.83,538.675,0.0
51146.0,STARLINK-3354,PAYLOAD,2024-01-01 04:33:14,15.08838925,0.0001575,53.2166,283.7365,96.0647,264.0525,8.5752e-05,1.077e-05,0.0,0 STARLINK-3354,1 51146U 22005AU  24001.18974657  .00001077  00000-0  85752-4 0  9996,2 51146  53.2166 283.7365 0001575  96.0647 264.0525 15.08838925108187,6917.884,95.438,540.838,538.659,0.0
51146.0,STARLINK-3354,PAYLOAD,2024-01-01 22:02:28,15.08850102,0.0001535,53.2167,280.4655,101.3478,258.7687,0.0001899,2.736e-05,0.0,0 STARLINK-3354,1 51146U 22005AU  24001.91838019  .00002736  00000-0  18990-3 0  9990,2 51146  53.2167 280.4655 0001535 101.3478 258.7687 15.08850102108294,6917.85,95.437,540.776,538.653,0.0
51146.0,STARLINK-3354,PAYLOAD,2024-01-02 01:13:14,15.08853426,0.0001563,53.2167,279.8709,96.2934,263.8236,0.00022571,3.307e-05,0.0,0 STARLINK-3354,1 51146U 22005AU  24002.05085801  .00003307  00000-0  22571-3 0  9994,2 51146  53.2167 279.8709 0001563  96.2934 263.8236 15.08853426109432,6917.839,95.437,540.786,538.623,0.0
51146.0,STARLINK-3354,PAYLOAD,2024-01-02 21:53:15,15.08843645,0.0001771,53.2161,276.007,121.535,238.5816,6.0436e-05,6.74e-06,0.0,0 STARLINK-3354,1 51146U 22005AU  24002.91198023  .00000674  00000-0  60436-4 0  9997,2 51146  53.2161 276.0070 0001771 121.5350 238.5816 15.08843645108446,6917.869,95.437,540.959,538.509,0.0
51146.0,STARLINK-3354,PAYLOAD,2024-01-03 01:04:01,15.08842744,0.0001361,53.2167,275.4119,99.8805,260.2341,7.8509e-05,9.62e-06,0.0,0 STARLINK-3354,1 51146U 22005AU  24003.04446186  .00000962  00000-0  78509-4 0  9998,2 51146  53.2167 275.4119 0001361  99.8805 260.2341 15.08842744109586,6917.872,95.437,540.679,538.795,0.0
51146.0,STARLINK-3354,PAYLOAD,2024-01-03 04:14:47,15.08843163,0.0001341,53.2165,274.8174,102.17,257.9442,6.7923e-05,7.93e-06,0.0,0 STARLINK-3354,1 51146U 22005AU  24003.17694110  .00000793  00000-0  67923-4 0  9994,2 51146  53.2165 274.8174 0001341 102.1700 257.9442 15.08843163108487,6917.871,95.437,540.663,538.808,0.0
51146.0,STARLINK-3354,PAYLOAD,2024-01-03 21:44:02,15.08839593,0.0001346,53.2164,271.5447,99.1106,261.0038,-8.672e-05,-1.668e-05,0.0,0 STARLINK-3354,1 51146U 22005AU  24003.90558355 -.00001668  00000-0 -86720-4 0  9995,2 51146  53.2164 271.5447 0001346  99.1106 261.0038 15.08839593108594,6917.882,95.438,540.678,538.815,0.0
51146.0,STARLINK-3354,PAYLOAD,2024-01-04 02:30:11,15.08841035,0.0001333,53.2166,270.6523,92.5528,267.5617,-1.0692e-05,-4.58e-06,0.0,0 STARLINK-3354,1 51146U 22005AU  24004.10430290 -.00000458  00000-0 -10692-4 0  9996,2 51146  53.2166 270.6523 0001333  92.5528 267.5617 15.08841035109748,6917.877,95.437,540.664,538.82,0.0
51146.0,STARLINK-3354,PAYLOAD,2024-01-04 21:34:49,15.08840289,0.0001302,53.2166,267.0836,86.9411,273.173,0.00011232,1.5e-05,0.0,0 STARLINK-3354,1 51146U 22005AU  24004.89918356  .00001500  00000-0  11232-3 0  9993,2 51146  53.2166 267.0836 0001302  86.9411 273.1730 15.08840289108747,6917.88,95.438,540.645,538.844,0.0
51146.0,STARLINK-3354,PAYLOAD,2024-01-05 00:45:35,15.08837401,0.0001376,53.2169,266.4885,82.2591,277.8557,0.00042119,6.421e-05,0.0,0 STARLINK-3354,1 51146U 22005AU  24005.03166566  .00006421  00000-0  42119-3 0  9993,2 51146  53.2169 266.4885 0001376  82.2591 277.8557 15.08837401108768,6917.888,95.438,540.705,538.801,0.0
51146.0,STARLINK-3354,PAYLOAD,2024-01-05 21:25:36,15.08837369,0.0001488,53.2157,262.6246,68.1362,291.9789,2.1038e-05,4.7e-07,0.0,0 STARLINK-3354,1 51146U 22005AU  24005.89278849  .00000047  00000-0  21038-4 0  9991,2 51146  53.2157 262.6246 0001488  68.1362 291.9789 15.08837369108898,6917.888,95.438,540.783,538.724,0.0
51146.0,STARLINK-3354,PAYLOAD,2024-01-06 00:36:23,15.08838846,0.0001494,53.2163,262.0324,77.2713,282.8446,4.2549e-05,3.89e-06,0.0,0 STARLINK-3354,1 51146U 22005AU  24006.02526798  .00000389  00000-0  42549-4 0  9995,2 51146  53.2163 262.0324 0001494  77.2713 282.8446 15.08838846110033,6917.884,95.438,540.782,538.715,0.0
51146.0,STARLINK-3354,PAYLOAD,2024-01-06 21:16:24,15.08839378,0.000147,53.2164,258.1648,83.0707,277.0452,-2.9191e-05,-7.53e-06,0.0,0 STARLINK-3354,1 51146U 22005AU  24006.88638975 -.00000753  00000-0 -29191-4 0  9995,2 51146  53.2164 258.1648 0001470  83.0707 277.0452 15.08839378109044,6917.882,95.438,540.764,538.73,0.0
51146.0,STARLINK-3354,PAYLOAD,2024-01-07 02:02:33,15.08833765,0.0001525,53.2177,257.2689,76.948,283.1683,0.00018545,2.664e-05,0.0,0 STARLINK-3354,1 51146U 22005AU  24007.08511244  .00002664  00000-0  18545-3 0  9998,2 51146  53.2177 257.2689 0001525  76.9480 283.1683 15.08833765110199,6917.899,95.438,540.819,538.709,0.0
51146.0,STARLINK-3354,PAYLOAD,2024-01-07 22:42:34,15.08843142,0.0001875,53.2174,253.4036,70.9844,289.1351,0.00013623,1.881e-05,0.0,0 STARLINK-3354,1 51146U 22005AU  24007.94622924  .00001881  00000-0  13623-3 0  9993,2 51146  53.2174 253.4036 0001875  70.9844 289.1351 15.08843142109204,6917.871,95.437,541.033,538.439,0.0
51146.0,STARLINK-3354,PAYLOAD,2024-01-08 19:22:35,15.0884124,0.0001622,53.2162,249.5399,106.4716,253.6454,7.7874e-05,9.52e-06,0.0,0 STARLINK-3354,1 51146U 22005AU  24008.80734991  .00000952  00000-0  77874-4 0  9994,2 51146  53.2162 249.5399 0001622 106.4716 253.6454 15.08841240110458,6917.877,95.437,540.864,538.62,0.0
51146.0,STARLINK-3354,PAYLOAD,2024-01-08 22:33:21,15.08841217,0.0001602,53.2166,248.9452,103.4339,256.6832,6.4371e-05,7.37e-06,0.0,0 STARLINK-3354,1 51146U 22005AU  24008.93982994  .00000737  00000-0  64371-4 0  9995,2 51146  53.2166 248.9452 0001602 103.4339 256.6832 15.08841217109355,6917.877,95.437,540.85,538.633,0.0
51146.0,STARLINK-3354,PAYLOAD,2024-01-09 19:13:21,15.08842143,0.0001748,53.217,245.0808,116.7663,243.3508,8.097e-05,1.001e-05,0.0,0 STARLINK-3354,1 51146U 22005AU  24009.80094786  .00001001  00000-0  80970-4 0  9993,2 51146  53.2170 245.0808 0001748 116.7663 243.3508 15.08842143109487,6917.874,95.437,540.948,538.53,0.0
51146.0,STARLINK-3354,PAYLOAD,2024-01-09 20:48:44,15.08842582,0.0001729,53.217,244.7835,115.1607,244.9565,8.1241e-05,1.005e-05,0.0,0 STARLINK-3354,1 51146U 22005AU  24009.86718749  .00001005  00000-0  81241-4 0  9997,2 51146  53.2170 244.7835 0001729 115.1607 244.9565 15.08842582110617,6917.872,95.437,540.934,538.541,0.0
51146.0,STARLINK-3354,PAYLOAD,2024-01-10 19:04:09,15.08835619,0.0001532,53.2167,240.623,105.8405,254.2756,3.0542e-05,1.98e-06,0.0,0 STARLINK-3354,1 51146U 22005AU  24010.79455527  .00000198  00000-0  30542-4 0  9993,2 51146  53.2167 240.6230 0001532 105.8405 254.2756 15.08835619110755,6917.894,95.438,540.819,538.699,0.0
51146.0,STARLINK-3354,PAYLOAD,2024-01-11 01:25:42,15.08837426,0.0001456,53.2164,239.4305,100.9401,259.1755,3.9216e-05,3.36e-06,0.0,0 STARLINK-3354,1 51146U 22005AU  24011.05951414  .00000336  00000-0  39216-4 0  9990,2 51146  53.2164 239.4305 0001456 100.9401 259.1755 15.08837426109678,6917.888,95.438,540.761,538.746,0.0
51146.0,STARLINK-3354,PAYLOAD,2024-01-11 20:30:19,15.08840707,0.0001385,53.2159,235.8618,101.3411,258.7737,6.7038e-05,7.79e-06,0.0,0 STARLINK-3354,1 51146U 22005AU  24011.85439259  .00000779  00000-0  67038-4 0  9990,2 51146  53.2159 235.8618 0001385 101.3411 258.7737 15.08840707109790,6917.878,95.438,540.701,538.785,0.0
51146.0,STARLINK-3354,PAYLOAD,2024-01-11 23:41:05,15.08844731,0.0001385,53.2161,235.2665,97.0718,263.0432,9.6384e-05,1.247e-05,0.0,0 STARLINK-3354,1 51146U 22005AU  24011.98686934  .00001247  00000-0  96384-4 0  9995,2 51146  53.2161 235.2665 0001385  97.0718 263.0432 15.08844731110930,6917.866,95.437,540.689,538.773,0.0
51146.0,STARLINK-3354,PAYLOAD,2024-01-12 18:45:43,15.08835297,0.0001345,53.2157,231.6985,104.4988,255.6154,6.2184e-05,7.02e-06,0.0,0 STARLINK-3354,1 51146U 22005AU  24012.78175881  .00000702  00000-0  62184-4 0  9994,2 51146  53.2157 231.6985 0001345 104.4988 255.6154 15.08835297111057,6917.895,95.438,540.69,538.829,0.0
51146.0,STARLINK-3354,PAYLOAD,2024-01-12 21:56:30,15.08835204,0.0001312,53.2158,231.1039,102.2933,257.8206,5.6054e-05,6.04e-06,0.0,0 STARLINK-3354,1 51146U 22005AU  24012.91423937  .00000604  00000-0  56054-4 0  9997,2 51146  53.2158 231.1039 0001312 102.2933 257.8206 15.08835204109959,6917.895,95.438,540.668,538.852,0.0
51146.0,STARLINK-3354,PAYLOAD,2024-01-12 23:31:53,15.08835343,0.0001311,53.2158,230.8066,102.0876,258.0263,5.5462e-05,5.95e-06,0.0,0 STARLINK-3354,1 51146U 22005AU  24012.98047947  .00000595  00000-0  55462-4 0  9998,2 51146  53.2158 230.8066 0001311 102.0876 258.0263 15.08835343109969,6917.895,95.438,540.667,538.853,0.0
51146.0,STARLINK-3354,PAYLOAD,2024-01-13 20:11:53,15.0884521,0.0001277,53.2154,226.9419,98.585,261.5287,8.8834e-05,1.126e-05,0.0,0 STARLINK-3354,1 51146U 22005AU  24013.84159374  .00001126  00000-0  88834-4 0  9992,2 51146  53.2154 226.9419 0001277  98.5850 261.5287 15.08845210111215,6917.864,95.437,540.613,538.846,0.0
51146.0,STARLINK-3354,PAYLOAD,2024-01-13 23:22:39,15.08847906,0.0001292,53.2156,226.3465,97.3164,262.7975,0.00010848,1.439e-05,0.0,0 STARLINK-3354,1 51146U 22005AU  24013.97407117  .00001439  00000-0  10848-3 0  9993,2 51146  53.2156 226.3465 0001292  97.3164 262.7975 15.08847906110113,6917.856,95.437,540.615,538.827,0.0
